MEAN_MOTION;ECCENTRICITY;INCLINATION;RA_OF_ASC_NODE;ARG_OF_PERICENTER;MEAN_ANOMALY;BSTAR;MEAN_MOTION_DOT;MEAN_MOTION_DDOT;TYPE
1.89107392;0.0032141;55.19;204.9739;309.9268;49.7592;0;1.3E-7;0;Navigation
1.89107368;0.0032163;55.1898;204.9373;309.934;49.7467;0;-1.0E-8;0;Navigation
1.89107348;0.0032185;55.1898;204.919;309.9152;49.7627;0;-7.0E-8;0;Navigation
1.89107334;0.0032196;55.1897;204.9006;309.9309;49.7449;0;-1.2E-7;0;Navigation
1.89107323;0.0032217;55.1895;204.864;309.9553;49.7179;0;-1.7E-7;0;Navigation
1.89107339;0.0032218;55.1893;204.8091;310.0388;49.6365;0;-1.4E-7;0;Navigation
1.89107344;0.0032222;55.1892;204.7908;310.0535;49.6238;0;-1.1E-7;0;Navigation
1.89107397;0.003222;55.189;204.736;310.0918;49.5945;0;1.0E-8;0;Navigation
1.89107416;0.0032217;55.189;204.736;310.0893;49.597;0;1.0E-8;0;Navigation
1.89107495;0.0032197;55.1888;204.6629;310.1014;49.5966;0;6.0E-8;0;Navigation
1.89107549;0.0032181;55.1887;204.6265;310.111;49.5904;0;1.0E-8;0;Navigation
1.89107566;0.0032179;55.1887;204.6265;310.0971;49.6043;0;1.0E-8;0;Navigation
1.89107599;0.0032175;55.1885;204.5718;310.0855;49.617;0;-1.6E-7;0;Navigation
1.89107621;0.0032182;55.1884;204.5537;310.0443;49.6576;0;-2.2E-7;0;Navigation
1.89107647;0.0032177;55.1882;204.5172;310.0333;49.667;0;-3.4E-7;0;Navigation
1.89107671;0.0032174;55.188;204.4808;310.0075;49.691;0;-4.3E-7;0;Navigation
1.89107692;0.0032167;55.1878;204.4262;309.9908;49.7066;0;-4.5E-7;0;Navigation
1.89107705;0.0032163;55.1876;204.408;309.9604;49.7374;0;-4.3E-7;0;Navigation
1.89107705;0.0032163;55.1876;204.408;309.9604;49.7374;0;-4.3E-7;0;Navigation
1.89107693;0.0032163;55.1872;204.3353;309.9116;49.7921;0;-2.2E-7;0;Navigation
1.89107693;0.0032163;55.1872;204.3353;309.9116;49.7921;0;-2.2E-7;0;Navigation
1.89107654;0.0032178;55.1868;204.2806;309.8872;49.8255;0;-1.0E-8;0;Navigation
1.89107654;0.0032178;55.1868;204.2806;309.8872;49.8255;0;-1.0E-8;0;Navigation
1.89107654;0.0032178;55.1868;204.2806;309.8872;49.8255;0;-1.0E-8;0;Navigation
1.89107654;0.0032178;55.1868;204.2806;309.8872;49.8255;0;-1.0E-8;0;Navigation
1.89107654;0.0032178;55.1868;204.2806;309.8872;49.8255;0;-1.0E-8;0;Navigation
1.89107502;0.0032202;55.1859;204.0801;310.0742;49.6665;0;1.6E-7;0;Navigation
1.89107458;0.003228;55.1857;204.0436;309.9978;49.7396;0;5.0E-8;0;Navigation
1.89107445;0.0032278;55.1857;204.0436;310.0052;49.7323;0;5.0E-8;0;Navigation
1.89107445;0.0032278;55.1857;204.0436;310.0052;49.7323;0;5.0E-8;0;Navigation
1.89107445;0.0032278;55.1857;204.0436;310.0052;49.7323;0;5.0E-8;0;Navigation
1.89107386;0.0032353;55.1853;203.9156;310.0637;49.6635;0;-2.3E-7;0;Navigation
1.89107386;0.0032353;55.1853;203.9156;310.0637;49.6635;0;-2.3E-7;0;Navigation
1.89107386;0.0032353;55.1853;203.9156;310.0637;49.6635;0;-2.3E-7;0;Navigation
1.89107532;0.0032423;55.1849;203.7877;310.0629;49.6805;0;2.0E-8;0;Navigation
1.89107575;0.0032416;55.1848;203.7512;310.0511;49.699;0;8.0E-8;0;Navigation
1.89107641;0.0032409;55.1848;203.6964;310.0405;49.7168;0;6.0E-8;0;Navigation
1.89107669;0.0032403;55.1847;203.6782;310.0453;49.7135;0;3.0E-8;0;Navigation
1.89107748;0.0032314;55.1846;203.6417;310.1833;49.5779;0;-7.0E-8;0;Navigation
1.8910776;0.0032338;55.1846;203.6417;310.1188;49.6419;0;-7.0E-8;0;Navigation
1.89107784;0.0032338;55.1845;203.6052;310.1149;49.6452;0;-1.8E-7;0;Navigation
1.89107822;0.0032352;55.1843;203.5688;310.0724;49.6859;0;-2.8E-7;0;Navigation
1.89107822;0.0032352;55.1843;203.5688;310.0724;49.6859;0;-2.8E-7;0;Navigation
1.89107822;0.0032352;55.1843;203.5688;310.0724;49.6859;0;-2.8E-7;0;Navigation
1.89107891;0.0032312;55.1838;203.4776;310.1159;49.6409;0;-3.3E-7;0;Navigation
1.89107894;0.0032307;55.1837;203.4412;310.0925;49.6658;0;-2.4E-7;0;Navigation
1.8910788;0.0032319;55.1835;203.4231;310.0514;49.7081;0;-1.8E-7;0;Navigation
1.89107863;0.0032331;55.1833;203.3684;310.0339;49.7326;0;4.0E-8;0;Navigation
1.89107863;0.0032331;55.1833;203.3684;310.0339;49.7326;0;4.0E-8;0;Navigation
1.89107836;0.0032418;55.183;203.2955;309.9418;49.8374;0;3.3E-7;0;Navigation
1.89107864;0.0032357;55.1829;203.2591;310.0803;49.707;0;4.3E-7;0;Navigation
1.89107837;0.0032438;55.183;203.2591;309.9786;49.8075;0;4.3E-7;0;Navigation
1.89107824;0.0032451;55.1829;203.2409;309.9686;49.8203;0;4.6E-7;0;Navigation
1.89107786;0.0032487;55.1828;203.2044;309.9453;49.8478;0;4.9E-7;0;Navigation
1.8910772;0.0032508;55.1826;203.1496;309.9696;49.8251;0;4.4E-7;0;Navigation
1.89107636;0.0032537;55.1825;203.0948;309.9998;49.7907;0;3.1E-7;0;Navigation
1.89107611;0.0032548;55.1825;203.0765;309.9986;49.7894;0;2.5E-7;0;Navigation
1.89107558;0.003258;55.1825;203.0216;310.0468;49.7343;0;1.2E-7;0;Navigation
1.89107554;0.0032612;55.1825;203.0216;310.0372;49.7436;0;1.2E-7;0;Navigation
1.89107552;0.0032621;55.1825;203.0033;310.0639;49.7152;0;1.0E-7;0;Navigation
1.8910756;0.003264;55.1824;202.9485;310.1056;49.6724;0;1.2E-7;0;Navigation
1.89107583;0.0032655;55.1824;202.9119;310.1245;49.6562;0;2.0E-7;0;Navigation
1.89107591;0.0032656;55.1824;202.9119;310.1336;49.6472;0;2.0E-7;0;Navigation
1.89107591;0.0032656;55.1824;202.9119;310.1336;49.6472;0;2.0E-7;0;Navigation
1.89107591;0.0032656;55.1824;202.9119;310.1336;49.6472;0;2.0E-7;0;Navigation
1.89107591;0.0032656;55.1824;202.9119;310.1336;49.6472;0;2.0E-7;0;Navigation
1.89107751;0.0032673;55.1824;202.7293;310.1881;49.613;0;3.9E-7;0;Navigation
1.89107775;0.003268;55.1824;202.7293;310.1744;49.6266;0;3.9E-7;0;Navigation
1.89107804;0.003268;55.1824;202.7111;310.1702;49.6306;0;3.5E-7;0;Navigation
1.89107864;0.0032689;55.1823;202.6746;310.1536;49.6451;0;2.3E-7;0;Navigation
1.89107892;0.0032691;55.1823;202.6564;310.1412;49.656;0;1.8E-7;0;Navigation
1.89107892;0.0032691;55.1823;202.6564;310.1412;49.656;0;1.8E-7;0;Navigation
1.89107966;0.0032684;55.1821;202.5836;310.0936;49.6971;0;4.0E-8;0;Navigation
1.89107973;0.003268;55.182;202.5289;310.0843;49.7038;0;8.0E-8;0;Navigation
1.89107967;0.0032685;55.1819;202.4925;310.0708;49.7174;0;1.9E-7;0;Navigation
1.8910796;0.0032685;55.1819;202.4743;310.0704;49.7187;0;2.5E-7;0;Navigation
1.89107933;0.00327;55.1818;202.4379;310.0567;49.7351;0;4.1E-7;0;Navigation
1.89107922;0.0032712;55.1817;202.3832;310.0627;49.7361;0;6.4E-7;0;Navigation
1.89107914;0.0032729;55.1817;202.365;310.0576;49.7436;0;7.1E-7;0;Navigation
1.89107908;0.0032741;55.1817;202.3468;310.0549;49.7489;0;7.7E-7;0;Navigation
1.89107908;0.0032741;55.1817;202.3468;310.0549;49.7489;0;7.7E-7;0;Navigation
1.89107908;0.0032741;55.1817;202.3468;310.0549;49.7489;0;7.7E-7;0;Navigation
1.89107804;0.0032793;55.1817;202.2373;310.1025;49.7097;0;9.1E-7;0;Navigation
1.89107745;0.0032824;55.1817;202.2007;310.1341;49.6758;0;8.6E-7;0;Navigation
1.89107673;0.0032844;55.1818;202.1459;310.1873;49.6149;0;7.2E-7;0;Navigation
1.89107652;0.0032853;55.1818;202.1458;310.1915;49.6106;0;7.2E-7;0;Navigation
1.89107606;0.0032875;55.1818;202.091;310.2385;49.5535;0;5.8E-7;0;Navigation
1.89107577;0.0032905;55.1819;202.0544;310.2761;49.5103;0;5.3E-7;0;Navigation
1.89107577;0.0032915;55.182;202.0178;310.299;49.4845;0;5.4E-7;0;Navigation
1.89107577;0.0032915;55.182;202.0178;310.299;49.4845;0;5.4E-7;0;Navigation
1.89107594;0.0032942;55.1821;201.963;310.3342;49.4499;0;6.4E-7;0;Navigation
1.89107594;0.0032942;55.1821;201.963;310.3342;49.4499;0;6.4E-7;0;Navigation
1.89107659;0.003293;55.1822;201.8717;310.4077;49.3849;0;8.5E-7;0;Navigation
1.89107697;0.0032935;55.1823;201.8352;310.4273;49.3672;0;8.6E-7;0;Navigation
1.89107722;0.0032933;55.1823;201.8169;310.4314;49.3633;0;8.4E-7;0;Navigation
1.89107785;0.0032941;55.1823;201.7804;310.4289;49.3642;0;7.6E-7;0;Navigation
1.89107825;0.0032934;55.1824;201.7622;310.4361;49.3555;0;7.1E-7;0;Navigation
1.8910791;0.0032919;55.1824;201.7075;310.4368;49.348;0;5.2E-7;0;Navigation
1.89107939;0.0032919;55.1823;201.671;310.4314;49.348;0;4.3E-7;0;Navigation
1.8910795;0.0032933;55.1823;201.6527;310.4259;49.3508;0;4.0E-7;0;Navigation
1.89107972;0.0032918;55.1823;201.5981;310.4254;49.3452;0;4.0E-7;0;Navigation
1.89107972;0.003292;55.1823;201.5799;310.4243;49.345;0;4.3E-7;0;Navigation
1.89107961;0.0032924;55.1822;201.5252;310.4265;49.3417;0;6.0E-7;0;Navigation
1.89107957;0.0032923;55.1822;201.5071;310.4419;49.3269;0;6.7E-7;0;Navigation
1.89107953;0.0032932;55.1822;201.4889;310.4434;49.3263;0;7.5E-7;0;Navigation
1.89107938;0.003294;55.1822;201.4342;310.4577;49.3166;0;9.7E-7;0;Navigation
1.8910792;0.0032943;55.1822;201.3978;310.4684;49.3094;0;1.08E-6;0;Navigation
1.89107895;0.0032964;55.1822;201.3613;310.4812;49.2993;0;1.16E-6;0;Navigation
1.89107856;0.0032977;55.1823;201.3248;310.5048;49.2766;0;1.18E-6;0;Navigation
1.89107806;0.0032995;55.1823;201.2883;310.5439;49.236;0;1.16E-6;0;Navigation
1.89107747;0.0033008;55.1824;201.2517;310.5962;49.1796;0;1.09E-6;0;Navigation
1.89107731;0.0033013;55.1825;201.2334;310.6178;49.1549;0;1.04E-6;0;Navigation
1.89107731;0.0033013;55.1825;201.2334;310.6178;49.1549;0;1.04E-6;0;Navigation
1.89107615;0.0033049;55.1826;201.1419;310.7297;49.0236;0;7.8E-7;0;Navigation
1.89107615;0.0033049;55.1826;201.1419;310.7297;49.0236;0;7.8E-7;0;Navigation
1.89107615;0.0033049;55.1826;201.1419;310.7297;49.0236;0;7.8E-7;0;Navigation
1.89107561;0.0033076;55.1828;201.0688;310.8117;48.9314;0;7.4E-7;0;Navigation
1.89107561;0.0033076;55.1828;201.0688;310.8117;48.9314;0;7.4E-7;0;Navigation
1.8910756;0.0033073;55.1829;200.9957;310.9013;48.8426;0;8.8E-7;0;Navigation
1.8910756;0.0033073;55.1829;200.9957;310.9013;48.8426;0;8.8E-7;0;Navigation
1.89107687;0.0033044;55.183;200.8862;310.9983;48.7509;0;9.6E-7;0;Navigation
1.89107747;0.0033035;55.1831;200.8498;311.0127;48.7347;0;8.8E-7;0;Navigation
1.89107815;0.0033023;55.1831;200.7951;311.0379;48.703;0;6.9E-7;0;Navigation
1.89107848;0.0033014;55.1831;200.7769;311.0402;48.6979;0;6.1E-7;0;Navigation
1.89107848;0.0033014;55.1831;200.7769;311.0402;48.6979;0;6.1E-7;0;Navigation
1.89107895;0.0032993;55.183;200.7223;311.0533;48.6756;0;4.4E-7;0;Navigation
1.89107895;0.0032993;55.183;200.7223;311.0533;48.6756;0;4.4E-7;0;Navigation
1.8910793;0.003297;55.183;200.6495;311.0739;48.6457;0;4.1E-7;0;Navigation
